IRIDIUM 8 [+]           
1 24792U 97020A   15357.06544691  .00000120  00000-0  35837-4 0  9991
2 24792  86.3964 185.2960 0002032  89.5108 270.6320 14.34219632975490
IRIDIUM 7 [+]           
1 24793U 97020B   15357.12886042  .00000096  00000-0  27095-4 0  9997
2 24793  86.3968 185.5228 0001999  89.4799 270.6626 14.34218059975504
IRIDIUM 6 [+]           
1 24794U 97020C   15357.12241500  .00000197  00000-0  63442-4 0  9990
2 24794  86.3967 185.4684 0001952  88.4363 271.7056 14.34210791975508
IRIDIUM 5 [+]           
1 24795U 97020D   15357.11617936  .00000099  00000-0  28216-4 0  9991
2 24795  86.3951 185.5209 0002015  90.0685 270.0742 14.34216830975585
IRIDIUM 4 [-]           
1 24796U 97020E   15357.10931162  .00000291  00000-0  95374-4 0  9994
2 24796  86.3961 184.7834 0002151  88.1233  32.8613 14.35024238975569
IRIDIUM 914 [-]         
1 24836U 97030A   15357.13388459  .00000282  00000-0  85663-4 0  9998
2 24836  86.3944 202.9645 0003730  88.5473  28.1044 14.38625885971012
IRIDIUM 12 [+]          
1 24837U 97030B   15357.15437609  .00000274  00000-0  90728-4 0  9992
2 24837  86.3966 216.6399 0001994  87.9593  25.8586 14.34220272969256
IRIDIUM 10 [+]          
1 24839U 97030D   15357.14137713  .00000270  00000-0  89353-4 0  9994
2 24839  86.3966 216.6286 0002018  86.9818  25.2559 14.34220866969264
IRIDIUM 13 [+]          
1 24840U 97030E   15357.16123179  .00000271  00000-0  89867-4 0  9990
2 24840  86.3968 216.7488 0002008  91.8874  24.6247 14.34221090969255
IRIDIUM 16 [-]          
1 24841U 97030F   15357.18231107  .00000273  00000-0  86224-4 0  9990
2 24841  86.4046 216.9507 0000304 204.8139 155.3044 14.36591290969762
IRIDIUM 911 [-]         
1 24842U 97030G   15357.15057388  .00000354  00000-0  96047-4 0  9999
2 24842  86.4475 218.0633 0016645  90.8285  21.9091 14.44787856974672
IRIDIUM 15 [+]          
1 24869U 97034A   15357.22095984  .00000035  00000-0  55263-5 0  9996
2 24869  86.3975 248.3249 0002060  84.3241  28.2311 14.34213098966239
IRIDIUM 17 [-]          
1 24870U 97034B   15357.22995553  .00000307  00000-0  99789-4 0  9991
2 24870  86.3980 247.1882 0002254 113.3558 358.1530 14.35615126966402
IRIDIUM 920 [-]         
1 24871U 97034C   15357.23688207  .00000295  00000-0  88557-4 0  9995
2 24871  86.3990 234.6797 0010744 332.4165 148.6029 14.39349190968395
IRIDIUM 18 [+]          
1 24872U 97034D   15357.30065684  .00000372  00000-0  12566-3 0  9994
2 24872  86.3977 248.5180 0001925  81.8606 278.2808 14.34212515966249
IRIDIUM 921 [-]         
1 24873U 97034E   15357.42482674  .00003119  00000-0  19157-3 0  9995
2 24873  86.3919 321.7305 0006738 191.8465 283.1668 15.09699564  6319
IRIDIUM 26 [-]          
1 24903U 97043A   15357.37211575  .00000261  00000-0  84540-4 0  9997
2 24903  86.3981 121.6592 0001900  91.0067 321.2035 14.35142956960263
IRIDIUM 25 [+]          
1 24904U 97043B   15357.38843940  .00000324  00000-0  10848-3 0  9995
2 24904  86.3976 121.9601 0001847  94.7638 265.3769 14.34213939960166
IRIDIUM 46 [+]          
1 24905U 97043C   15357.40112675  .00000316  00000-0  10576-3 0  9992
2 24905  86.3984 122.4588 0001992  93.1775 266.9649 14.34213490960179
IRIDIUM 23 [S]          
1 24906U 97043D   15357.40585721  .00000325  00000-0  10917-3 0  9998
2 24906  86.3989 121.9187 0001931  91.9677 325.2981 14.34214155960182
IRIDIUM 22 [+]          
1 24907U 97043E   15357.36940815  .00000314  00000-0  10496-3 0  9993
2 24907  86.3985 122.5737 0001984  95.4612 264.6810 14.34214313960164
DUMMY MASS 1 [-]        
1 24925U 97048A   15356.90460401  .00000296  00000-0  31446-4 0  9993
2 24925  86.3363 293.3760 0008179 143.4399 216.7385 14.85028841991104
DUMMY MASS 2 [-]        
1 24926U 97048B   15356.93384347  .00000290  00000-0  30837-4 0  9998
2 24926  86.3363 294.3893 0008687 150.9784 251.1365 14.84797960990977
IRIDIUM 29 [-]          
1 24944U 97051A   15357.36134225  .00000274  00000-0  90036-4 0  9997
2 24944  86.3970 153.5254 0002342  91.2695 268.8769 14.34528507956742
IRIDIUM 32 [+]          
1 24945U 97051B   15357.39817861  .00000145  00000-0  44890-4 0  9999
2 24945  86.3969 153.6050 0002035  91.0540 269.0889 14.34220377956764
IRIDIUM 33 [-]          
1 24946U 97051C   15357.38404079  .00000241  00000-0  80352-4 0  9992
2 24946  86.3884 153.5108 0007184 193.9090 225.4519 14.33448194956423
IRIDIUM 28 [-]          
1 24948U 97051E   15357.38194794  .00000282  00000-0  91298-4 0  9990
2 24948  86.3974 153.0559 0001687  93.7351 325.4792 14.35429205956854
IRIDIUM 30 [+]          
1 24949U 97051F   15357.39183215  .00000149  00000-0  45980-4 0  9997
2 24949  86.3971 153.6950 0001999  89.3676 270.7749 14.34220674956740
IRIDIUM 31 [+]          
1 24950U 97051G   15357.38548845  .00000139  00000-0  42511-4 0  9998
2 24950  86.3971 153.6984 0002120  94.7444 265.3994 14.34220612956754
IRIDIUM 19 [+]          
1 24965U 97056A   15357.09083139  .00000130  00000-0  39197-4 0  9994
2 24965  86.3965 185.2926 0002006  89.7954 270.3472 14.34219164954859
IRIDIUM 35 [+]          
1 24966U 97056B   15357.10350072  .00000114  00000-0  33736-4 0  9995
2 24966  86.3964 185.2853 0001987  89.2688 270.8735 14.34219808954834
IRIDIUM 36 [-]          
1 24967U 97056C   15357.40358044  .00000276  00000-0  89285-4 0  9995
2 24967  86.3975 184.6380 0002187  92.9598 314.6732 14.35475762955142
IRIDIUM 37 [+]          
1 24968U 97056D   15357.14789323  .00000120  00000-0  35818-4 0  9996
2 24968  86.3967 185.4373 0002032  89.4338 270.7091 14.34220310954849
IRIDIUM 34 [+]          
1 24969U 97056E   15357.09716280  .00000115  00000-0  33981-4 0  9996
2 24969  86.3966 185.3958 0002018  91.1404 269.0023 14.34219305954832
IRIDIUM 43 [+]          
1 25039U 97069A   15357.15476992  .00000351  00000-0  11812-3 0  9999
2 25039  86.3988 248.4981 0002042  87.8817 272.2613 14.34217019948620
IRIDIUM 41 [+]          
1 25040U 97069B   15357.24019285  .00000103  00000-0  29664-4 0  9999
2 25040  86.3977 248.4319 0001903  80.2971  33.3378 14.34211663948632
IRIDIUM 40 [+]          
1 25041U 97069C   15357.38311205  .00000354  00000-0  11935-3 0  9991
2 25041  86.3981 248.5973 0002775 101.5857 258.5650 14.34212727948673
IRIDIUM 39 [+]          
1 25042U 97069D   15357.24991275  .00000404  00000-0  13705-3 0  9991
2 25042  86.3996 248.6967 0001854  78.3465 281.7939 14.34219876948633
IRIDIUM 38 [-]          
1 25043U 97069E   15357.24611363  .00000285  00000-0  91594-4 0  9999
2 25043  86.3980 246.2545 0000958  99.4791  15.1067 14.35894946948968
IRIDIUM 42 [-]          
1 25077U 97077A   15357.26322711  .00000247  00000-0  80778-4 0  9993
2 25077  86.3981 248.4523 0001874  88.6310 271.5101 14.34436434944507
IRIDIUM 44 [-]          
1 25078U 97077B   15357.26169782  .00000322  00000-0  99903-4 0  9995
2 25078  86.3979 239.3610 0000787 136.5751 345.0022 14.37968365945758
IRIDIUM 45 [+]          
1 25104U 97082A   15357.37914974  .00000148  00000-0  45662-4 0  9993
2 25104  86.3968 153.7472 0000469  99.1754 260.9494 14.34220477942718
IRIDIUM 24 [-]          
1 25105U 97082B   15357.38505706  .00000323  00000-0  96716-4 0  9995
2 25105  86.3943 104.2502 0010571 338.4751  84.3669 14.39711049944908
IRIDIUM 47 [+]          
1 25106U 97082C   15357.40752111  .00000319  00000-0  10693-3 0  9997
2 25106  86.3974 121.8410 0002001  90.9320 269.2105 14.34206603942713
IRIDIUM 49 [+]          
1 25108U 97082E   15357.43241237  .00000355  00000-0  11955-3 0  9996
2 25108  86.3974 121.9187 0001965  93.3568 330.0457 14.34214316942724
IRIDIUM 52 [+]          
1 25169U 98010A   15357.17037533  .00000272  00000-0  90099-4 0  9993
2 25169  86.3970 216.9032 0002021  87.8351 272.3077 14.34216678934093
IRIDIUM 56 [+]          
1 25170U 98010B   15357.16401850  .00000303  00000-0  10112-3 0  9993
2 25170  86.3969 217.0096 0001748  83.5006 276.6388 14.34220828934072
IRIDIUM 54 [+]          
1 25171U 98010C   15357.19576199  .00000278  00000-0  92366-4 0  9999
2 25171  86.3971 216.9108 0002021  88.0920 272.0508 14.34221100934245
IRIDIUM 50 [+]          
1 25172U 98010D   15357.18015104  .00000266  00000-0  88054-4 0  9999
2 25172  86.3972 216.8764 0002087  87.4699  28.4716 14.34220428934079
IRIDIUM 53 [+]          
1 25173U 98010E   15357.12858633  .00000273  00000-0  90396-4 0  9996
2 25173  86.3971 216.9038 0002022  88.5225  23.1772 14.34220949934072
IRIDIUM 51 [S]          
1 25262U 98018A   15357.12252127  .00000023  00000-0  11512-5 0  9996
2 25262  86.3961 185.5582 0002052  82.9324 277.2105 14.34218399933466
IRIDIUM 61 [+]          
1 25263U 98018B   15357.08447611  .00000114  00000-0  33766-4 0  9991
2 25263  86.3967 185.4304 0001999  88.9006 271.2418 14.34219274929162
IRIDIUM 55 [+]          
1 25272U 98019A   15357.36645357  .00000157  00000-0  48839-4 0  9994
2 25272  86.3969 153.5302 0001999  91.5326 268.6099 14.34221264928406
IRIDIUM 57 [+]          
1 25273U 98019B   15357.41087137  .00000141  00000-0  43156-4 0  9997
2 25273  86.3972 153.7949 0002000  91.3279 268.8145 14.34220019928411
IRIDIUM 58 [+]          
1 25274U 98019C   15357.41720316  .00000160  00000-0  50114-4 0  9994
2 25274  86.3976 153.9739 0001986  89.1064 271.0360 14.34220718928415
IRIDIUM 59 [+]          
1 25275U 98019D   15357.42357030  .00000141  00000-0  43152-4 0  9998
2 25275  86.3971 153.8539 0002113  90.8878 269.2560 14.34219235928416
IRIDIUM 60 [+]          
1 25276U 98019E   15357.36012758  .00000133  00000-0  40534-4 0  9999
2 25276  86.3967 153.5212 0001994  92.1806 267.9618 14.34220109928409
IRIDIUM 62 [+]          
1 25285U 98021A   15357.32162130  .00000377  00000-0  12767-3 0  9994
2 25285  86.3977  90.4519 0002065  94.1140 266.0292 14.34217043927356
IRIDIUM 63 [-]          
1 25286U 98021B   15357.34473117  .00000240  00000-0  78294-4 0  9994
2 25286  86.4005  90.8133 0002322  92.2471 329.8801 14.34541253927366
IRIDIUM 64 [+]          
1 25287U 98021C   15357.33430225  .00000379  00000-0  12838-3 0  9991
2 25287  86.3978  90.4845 0002078 101.3076 258.8353 14.34217718927338
